MALLIGYONG-1            
1 58400U 23179A   24031.50509937  .00006761  00000+0  29664-3 0  9996
2 58400  97.4228 280.3567 0016819  34.7248 325.5082 15.22159817 10787
